STARLINK-4535           
1 53392C 22097E   26122.97409722 -.00027452  00000+0 -17215-2 0  1222
2 53392  53.2163 240.4274 0001322  89.1515  11.2207 15.08852680    11
STARLINK-4530           
1 53393C 22097F   26123.05048611 -.00009124  00000+0 -57217-3 0  1233
2 53393  53.2162 240.0837 0001323  92.8821  42.6429 15.08839446    13
STARLINK-4544           
1 53394C 22097G   26122.97965278 -.00025577  00000+0 -16027-2 0  1223
2 53394  53.2159 230.0125 0001231  78.5762 327.2839 15.08877175    10
STARLINK-4534           
1 53395C 22097H   26123.01506944 -.00025979  00000+0 -16290-2 0  1230
2 53395  53.2162 240.2526 0001213  89.6815 248.1633 15.08852825    13
STARLINK-4524           
1 53396C 22097J   26123.02756944 -.00018954  00000+0 -11887-2 0  1231
2 53396  53.2160 240.1889 0001350  93.1648  37.8350 15.08843825    18
STARLINK-4515           
1 53397C 22097K   26123.03243056 -.00017307  00000+0 -10854-2 0  1232
2 53397  53.2163 240.1630 0001400  90.1134   7.2817 15.08843927    11
STARLINK-4512           
1 53398C 22097L   26123.01090278 -.00023609  00000+0 -14806-2 0  1230
2 53398  53.2159 240.2636 0001311  89.1486 351.2486 15.08847916    19
STARLINK-4528           
1 53399C 22097M   26122.97895833 -.00027882  00000+0 -17486-2 0  1228
2 53399  53.2163 240.4067 0001296  88.5121 118.2958 15.08848280    16
STARLINK-4520           
1 53400C 22097N   26123.00256944 -.00024872  00000+0 -15597-2 0  1238
2 53400  53.2153 240.3021 0001274  85.9243   9.1956 15.08849813    18
STARLINK-4525           
1 53401C 22097P   26123.05743056  .00016752  00000+0  10498-2 0  1230
2 53401  53.2162 240.0546 0001371  84.4548 228.8205 15.08855333    19
STARLINK-4499           
1 53402C 22097Q   26123.04423611 -.00014168  00000+0 -88859-3 0  1230
2 53402  53.2155 240.1147 0001255  86.8394 254.7287 15.08839576    15
STARLINK-4507           
1 53403C 22097R   26123.03729167 -.00016539  00000+0 -10372-2 0  1233
2 53403  53.2165 240.4906 0001242  91.8704 326.5161 15.08845477    16
STARLINK-4509           
1 53404C 22097S   26122.97826389 -.00024887  00000+0 -15612-2 0  1226
2 53404  53.2158 230.3422 0001288  87.6443 345.2507 15.08837508    11
STARLINK-4510           
1 53405C 22097T   26123.02756944 -.00021251  00000+0 -13327-2 0  1237
2 53405  53.2155 240.1882 0001366  85.1767 185.7987 15.08846765    11
STARLINK-4533           
1 53406C 22097U   26123.01506944 -.00014944  00000+0 -93713-3 0  1239
2 53406  53.2157 230.2453 0001285  80.1222 257.9349 15.08844584    10
STARLINK-4491           
1 53408C 22097W   26123.01715278 -.00014000  00000+0 -87799-3 0  1233
2 53408  53.2158 230.2396 0001263  85.3072 204.0549 15.08842581    15
STARLINK-4490           
1 53409C 22097X   26123.05395833  .00022368  00000+0  14026-2 0  1235
2 53409  53.2162 220.2634 0001257  92.0484  72.2376 15.08827845    19
STARLINK-4492           
1 53410C 22097Y   26122.98590278 -.00022397  00000+0 -14046-2 0  1223
2 53410  53.2156 230.3755 0001288  88.2790  51.2607 15.08844512    15
STARLINK-4497           
1 53411C 22097Z   26123.00881944 -.00017629  00000+0 -11056-2 0  1232
2 53411  53.2158 230.2714 0001209  84.6114 139.4636 15.08845003    12
STARLINK-4496           
1 53412C 22097AA  26122.97687500 -.00024554  00000+0 -15397-2 0  1226
2 53412  53.2159 230.4180 0001266  92.0943  58.3692 15.08852007    12
STARLINK-4500           
1 53413C 22097AB  26123.03520833 -.00003002  00000+0 -18825-3 0  1236
2 53413  53.2156 230.1540 0001294  89.9895 337.5273 15.08836628    17
STARLINK-4304           
1 53414C 22097AC  26123.05118056  .00006082  00000+0  38142-3 0  1232
2 53414  53.2157 230.0819 0000885  87.9139 126.3838 15.08835034    12
STARLINK-4479           
1 53415C 22097AD  26123.02479167 -.00008030  00000+0 -50377-3 0  1234
2 53415  53.2157 230.1990 0001185 100.0059 350.8030 15.08824820    15
STARLINK-4480           
1 53416C 22097AE  26122.97409722 -.00045624  00000+0 -28642-2 0  1226
2 53416  53.2164 230.3759 0001158  96.8686 158.6637 15.08820499    12
STARLINK-4484           
1 53417C 22097AF  26123.02409722 -.00008463  00000+0 -53076-3 0  1235
2 53417  53.2158 230.2019 0001309  92.8294  14.2808 15.08837976    18
STARLINK-4481           
1 53418C 22097AG  26122.98243056 -.00015989  00000+0 -10028-2 0  1225
2 53418  53.2159 219.9540 0001303  92.8303   3.1080 15.08838849    17
STARLINK-4476           
1 53419C 22097AH  26122.98659722 -.00025670  00000+0 -16098-2 0  1228
2 53419  53.2159 230.3698 0001291  95.2185 188.0794 15.08848994    17
STARLINK-4552           
1 53420C 22097AJ  26122.99631944 -.00022320  00000+0 -13996-2 0  1220
2 53420  53.2162 230.3271 0001239  88.6016 307.5508 15.08849631    11
STARLINK-4545           
1 53421C 22097AK  26122.99076389 -.00025014  00000+0 -15686-2 0  1228
2 53421  53.2160 230.3511 0001267  90.1321 235.8352 15.08848708    19
STARLINK-4546           
1 53422C 22097AL  26123.00951389 -.00015463  00000+0 -96929-3 0  1232
2 53422  53.2164 230.2694 0001351  85.1121  62.6506 15.08859531    14
STARLINK-4539           
1 53423C 22097AM  26123.01159722 -.00014882  00000+0 -93325-3 0  1236
2 53423  53.2163 230.2666 0001338  91.9550   2.0067 15.08843504    12
STARLINK-4532           
1 53424C 22097AN  26122.99423611 -.00020792  00000+0 -13039-2 0  1223
2 53424  53.2161 230.3386 0001266  84.1301  20.6832 15.08846814    12
STARLINK-4531           
1 53425C 22097AP  26123.00465278 -.00018622  00000+0 -11668-2 0  1238
2 53425  53.2165 230.2908 0001163  91.3241  10.1325 15.08876760    19
STARLINK-4558           
1 53426C 22097AQ  26123.01368056 -.00002677  00000+0 -16792-3 0  1233
2 53426  53.2160 220.4044 0001316  90.3056 235.1103 15.08831558    19
STARLINK-4543           
1 53429C 22097AT  26122.99493056 -.00012338  00000+0 -77384-3 0  1229
2 53429  53.2160 220.4495 0001308  86.0096 157.4962 15.08838184    10
STARLINK-4538           
1 53430C 22097AU  26122.98798611 -.00015431  00000+0 -96775-3 0  1227
2 53430  53.2159 220.4043 0001121  84.3902 161.4481 15.08841052    18
STARLINK-4548           
1 53431C 22097AV  26122.97409722 -.00020651  00000+0 -12951-2 0  1222
2 53431  53.2157 220.0401 0001204  88.3881 302.2284 15.08844823    18
STARLINK-4557           
1 53432C 22097AW  26123.01576389  .00000967  00000+0  60653-4 0  1234
2 53432  53.2153 220.0014 0001152  82.8899  94.0988 15.08839525    15
STARLINK-4549           
1 53433C 22097AX  26123.05395833  .00024306  00000+0  15243-2 0  1238
2 53433  53.2158 220.0671 0001211  87.0072 177.4044 15.08822829    14
STARLINK-4498           
1 53434C 22097AY  26123.00881944  .00199390  00000+0  27491-2 0  1231
2 53434  53.2169 211.2514 0001018  71.2315 250.7941 15.56492596    13
STARLINK-4542           
1 53435C 22097AZ  26123.04076389  .00015766  00000+0  98881-3 0  1231
2 53435  53.2156 219.9302 0001226  88.9158 203.8975 15.08824412    10
STARLINK-4527           
1 53436C 22097BA  26123.03243056  .00010548  00000+0  66143-3 0  1237
2 53436  53.2155 219.8479 0001259  94.1890 213.4322 15.08835023    15
STARLINK-4526           
1 53438C 22097BC  26122.99770833 -.00008824  00000+0 -55334-3 0  1226
2 53438  53.2158 219.9657 0001288  90.0545  48.8938 15.08840545    11
STARLINK-4519           
1 53439C 22097BD  26123.01645833  .00001492  00000+0  93593-4 0  1235
2 53439  53.2156 220.0066 0001126  91.2408  84.3240 15.08833235    18
STARLINK-4415           
1 53465C 22099A   26122.98381944 -.00059674  00000+0 -41438-2 0  1226
2 53465  97.5365 244.6807 0001349 133.9762 218.0881 15.05680659    13
STARLINK-4398           
1 53466C 22099B   26123.03937500  .00370030  00000+0  14350-1 0  1232
2 53466  97.6038 244.3578 0001562  76.0082 269.8236 15.26006717    11
STARLINK-4394           
1 53467C 22099C   26122.98868056  .00335990  00000+0  11856-1 0  1228
2 53467  97.6043 245.5111 0001656  79.1746 197.8865 15.29135134    16
STARLINK-4400           
1 53468C 22099D   26123.03034722 -.00043467  00000+0 -30187-2 0  1238
2 53468  97.5374 243.6389 0001081  92.6076 143.8183 15.05668112    12
STARLINK-4399           
1 53469C 22099E   26122.99006944 -.00071755  00000+0 -49832-2 0  1225
2 53469  97.5370 244.7036 0001032 145.1862 330.7266 15.05683020    17
STARLINK-4393           
1 53470C 22099F   26123.01993056 -.00058276  00000+0 -40469-2 0  1231
2 53470  97.5365 243.5908 0000691 113.4588 336.5546 15.05678504    17
STARLINK-4316           
1 53471C 22099G   26123.01645833 -.00053724  00000+0 -37309-2 0  1231
2 53471  97.5374 244.6765 0002033 126.6984  27.1868 15.05673566    12
STARLINK-4447           
1 53472C 22099H   26123.00118056 -.00055030  00000+0 -38222-2 0  1230
2 53472  97.5383 243.5474 0000858  96.5107 221.9538 15.05670043    18
STARLINK-4383           
1 53473C 22099J   26122.99909722  .00324320  00000+0  18898-1 0  1220
2 53473  97.6016 244.8160 0001753  83.0247 251.3368 15.11917967    14
STARLINK-4445           
1 53474C 22099K   26123.00604167 -.00064920  00000+0 -45086-2 0  1239
2 53474  97.5381 243.6121 0000087 274.8497 279.9098 15.05679109    11
STARLINK-4389           
1 53475C 22099L   26122.99145833  .00343320  00000+0  12380-1 0  1228
2 53475  97.6043 244.3648 0001592  79.6641 213.1577 15.28423511    15
STARLINK-4378           
1 53476C 22099M   26123.02895833 -.00041929  00000+0 -29121-2 0  1231
2 53476  97.5379 243.6897 0000152 134.9604 258.9205 15.05665229    14
STARLINK-4412           
1 53477C 22099N   26123.05048611  .00342040  00000+0  12424-1 0  1232
2 53477  97.6042 244.3933 0001523  78.3089 121.8321 15.28184779    11
STARLINK-4433           
1 53478C 22099P   26123.02062500 -.00060200  00000+0 -41810-2 0  1232
2 53478  97.5387 243.5393 0000789  91.9901 301.8059 15.05675292    19
STARLINK-4436           
1 53479C 22099Q   26123.00534722 -.00060066  00000+0 -41711-2 0  1231
2 53479  97.5374 244.7677 0002115 151.7658 241.8859 15.05678933    19
